{
  "type": "FeatureCollection",
  "features": [
    {
      "type": "Feature",
      "properties": {
        "norad_id": 34340,
        "name": "COSMOS 2251 DEB",
        "group": "cosmos-2251-debris",
        "lat": 46.792413399936386,
        "lon": -19.416896776602695,
        "alt_km": 770.4398463837861,
        "timestamp": "2025-12-03T19:33:07.371364+00:00",
        "meta_object_name": "COSMOS 2251 DEB",
        "meta_object_id": "1993-036PN",
        "meta_epoch": "2025-12-03T09:36:02.401056",
        "meta_mean_motion": 13.79523949,
        "meta_eccentricity": 0.0281783,
        "meta_inclination": 74.079,
        "meta_ra_of_asc_node": 323.5851,
        "meta_arg_of_pericenter": 73.6976,
        "meta_mean_anomaly": 78.4865,
        "meta_ephemeris_type": 0,
        "meta_classification_type": "U",
        "meta_norad_cat_id": 34340,
        "meta_element_set_no": 999,
        "meta_rev_at_epoch": 84139,
        "meta_bstar": 0.001125,
        "meta_mean_motion_dot": 1.54e-05,
        "meta_mean_motion_ddot": 0,
        "tle_line1": "1 34340U 93036PN  25337.40002779  .00001540  00000+0  11250-2 0  9994",
        "tle_line2": "2 34340  74.0790 323.5851 0281783  73.6976  78.4865 13.79523949841392"
      },
      "geometry": {
        "type": "Point",
        "coordinates": [
          -19.416896776602695,
          46.792413399936386
        ]
      }
    },
    {
      "type": "Feature",
      "properties": {
        "norad_id": 34343,
        "name": "COSMOS 2251 DEB",
        "group": "cosmos-2251-debris",
        "lat": 54.38019682597815,
        "lon": -96.72092634261314,
        "alt_km": 660.1250920433622,
        "timestamp": "2025-12-03T19:33:07.371374+00:00",
        "meta_object_name": "COSMOS 2251 DEB",
        "meta_object_id": "1993-036PR",
        "meta_epoch": "2025-12-03T11:06:15.590016",
        "meta_mean_motion": 14.69155265,
        "meta_eccentricity": 0.0022538,
        "meta_inclination": 74.0194,
        "meta_ra_of_asc_node": 107.5382,
        "meta_arg_of_pericenter": 26.0419,
        "meta_mean_anomaly": 35.0201,
        "meta_ephemeris_type": 0,
        "meta_classification_type": "U",
        "meta_norad_cat_id": 34343,
        "meta_element_set_no": 999,
        "meta_rev_at_epoch": 88594,
        "meta_bstar": 0.0021845,
        "meta_mean_motion_dot": 0.00012895,
        "meta_mean_motion_ddot": 0,
        "tle_line1": "1 34343U 93036PR  25337.46268044  .00012895  00000+0  21845-2 0  9998",
        "tle_line2": "2 34343  74.0194 107.5382 0022538  26.0419  35.0201 14.69155265885941"
      },
      "geometry": {
        "type": "Point",
        "coordinates": [
          -96.72092634261314,
          54.38019682597815
        ]
      }
    },
    {
      "type": "Feature",
      "properties": {
        "norad_id": 34344,
        "name": "COSMOS 2251 DEB",
        "group": "cosmos-2251-debris",
        "lat": 53.54563541582726,
        "lon": -76.61473476923078,
        "alt_km": 942.9555291372508,
        "timestamp": "2025-12-03T19:33:07.371384+00:00",
        "meta_object_name": "COSMOS 2251 DEB",
        "meta_object_id": "1993-036PS",
        "meta_epoch": "2025-12-02T12:47:13.899264",
        "meta_mean_motion": 14.16298308,
        "meta_eccentricity": 0.01551689,
        "meta_inclination": 73.9766,
        "meta_ra_of_asc_node": 128.565,
        "meta_arg_of_pericenter": 314.8879,
        "meta_mean_anomaly": 114.6708,
        "meta_ephemeris_type": 0,
        "meta_classification_type": "U",
        "meta_norad_cat_id": 34344,
        "meta_element_set_no": 999,
        "meta_rev_at_epoch": 85952,
        "meta_bstar": 0.0017796422,
        "meta_mean_motion_dot": 3.944e-05,
        "meta_mean_motion_ddot": 0,
        "tle_line1": "1 34344U 93036PS  25336.53279976  .00003944  00000+0  17796-2 0  9997",
        "tle_line2": "2 34344  73.9766 128.5650 0155168 314.8879 114.6708 14.16298308859529"
      },
      "geometry": {
        "type": "Point",
        "coordinates": [
          -76.61473476923078,
          53.54563541582726
        ]
      }
    },
    {
      "type": "Feature",
      "properties": {
        "norad_id": 34346,
        "name": "COSMOS 2251 DEB",
        "group": "cosmos-2251-debris",
        "lat": 46.039630166087356,
        "lon": -14.950749501962193,
        "alt_km": 914.2743573860134,
        "timestamp": "2025-12-03T19:33:07.371394+00:00",
        "meta_object_name": "COSMOS 2251 DEB",
        "meta_object_id": "1993-036PU",
        "meta_epoch": "2025-12-03T09:47:58.874784",
        "meta_mean_motion": 13.9964907,
        "meta_eccentricity": 0.0206784,
        "meta_inclination": 73.9945,
        "meta_ra_of_asc_node": 328.4382,
        "meta_arg_of_pericenter": 149.5728,
        "meta_mean_anomaly": 14.6395,
        "meta_ephemeris_type": 0,
        "meta_classification_type": "U",
        "meta_norad_cat_id": 34346,
        "meta_element_set_no": 999,
        "meta_rev_at_epoch": 85279,
        "meta_bstar": 0.00112,
        "meta_mean_motion_dot": 1.946e-05,
        "meta_mean_motion_ddot": 0,
        "tle_line1": "1 34346U 93036PU  25337.40832031  .00001946  00000+0  11200-2 0  9997",
        "tle_line2": "2 34346  73.9945 328.4382 0206784 149.5728  14.6395 13.99649070852799"
      },
      "geometry": {
        "type": "Point",
        "coordinates": [
          -14.950749501962193,
          46.039630166087356
        ]
      }
    },
    {
      "type": "Feature",
      "properties": {
        "norad_id": 34383,
        "name": "COSMOS 2251 DEB",
        "group": "cosmos-2251-debris",
        "lat": -0.21835807297377452,
        "lon": -43.96860690073875,
        "alt_km": 544.5236232892348,
        "timestamp": "2025-12-03T19:33:07.371405+00:00",
        "meta_object_name": "COSMOS 2251 DEB",
        "meta_object_id": "1993-036PY",
        "meta_epoch": "2025-12-03T08:58:18.358176",
        "meta_mean_motion": 15.07540663,
        "meta_eccentricity": 0.0003071,
        "meta_inclination": 74.021,
        "meta_ra_of_asc_node": 317.0009,
        "meta_arg_of_pericenter": 35.503,
        "meta_mean_anomaly": 92.8624,
        "meta_ephemeris_type": 0,
        "meta_classification_type": "U",
        "meta_norad_cat_id": 34383,
        "meta_element_set_no": 999,
        "meta_rev_at_epoch": 88972,
        "meta_bstar": 0.0038957,
        "meta_mean_motion_dot": 0.00059679,
        "meta_mean_motion_ddot": 0,
        "tle_line1": "1 34383U 93036PY  25337.37382359  .00059679  00000+0  38957-2 0  9991",
        "tle_line2": "2 34383  74.0210 317.0009 0003071  35.5030  92.8624 15.07540663889726"
      },
      "geometry": {
        "type": "Point",
        "coordinates": [
          -43.96860690073875,
          -0.21835807297377452
        ]
      }
    },
    {
      "type": "Feature",
      "properties": {
        "norad_id": 34387,
        "name": "COSMOS 2251 DEB",
        "group": "cosmos-2251-debris",
        "lat": -26.747403609223994,
        "lon": 56.7763827636508,
        "alt_km": 764.7171109399496,
        "timestamp": "2025-12-03T19:33:07.371477+00:00",
        "meta_object_name": "COSMOS 2251 DEB",
        "meta_object_id": "1993-036QC",
        "meta_epoch": "2025-12-02T19:37:56.877888",
        "meta_mean_motion": 14.43785146,
        "meta_eccentricity": 0.00385289,
        "meta_inclination": 74.0405,
        "meta_ra_of_asc_node": 230.3357,
        "meta_arg_of_pericenter": 329.1775,
        "meta_mean_anomaly": 100.8975,
        "meta_ephemeris_type": 0,
        "meta_classification_type": "U",
        "meta_norad_cat_id": 34387,
        "meta_element_set_no": 999,
        "meta_rev_at_epoch": 88038,
        "meta_bstar": 0.00039323543,
        "meta_mean_motion_dot": 1.323e-05,
        "meta_mean_motion_ddot": 0,
        "tle_line1": "1 34387U 93036QC  25336.81801942  .00001323  00000+0  39324-3 0  9990",
        "tle_line2": "2 34387  74.0405 230.3357 0038528 329.1775 100.8975 14.43785146880380"
      },
      "geometry": {
        "type": "Point",
        "coordinates": [
          56.7763827636508,
          -26.747403609223994
        ]
      }
    },
    {
      "type": "Feature",
      "properties": {
        "norad_id": 34388,
        "name": "COSMOS 2251 DEB",
        "group": "cosmos-2251-debris",
        "lat": 12.968124554748242,
        "lon": -116.37935071023914,
        "alt_km": 727.9248226337822,
        "timestamp": "2025-12-03T19:33:07.371489+00:00",
        "meta_object_name": "COSMOS 2251 DEB",
        "meta_object_id": "1993-036QD",
        "meta_epoch": "2025-12-03T12:03:53.756928",
        "meta_mean_motion": 14.49281712,
        "meta_eccentricity": 0.0014324,
        "meta_inclination": 74.0401,
        "meta_ra_of_asc_node": 240.4268,
        "meta_arg_of_pericenter": 289.0048,
        "meta_mean_anomaly": 257.4606,
        "meta_ephemeris_type": 0,
        "meta_classification_type": "U",
        "meta_norad_cat_id": 34388,
        "meta_element_set_no": 999,
        "meta_rev_at_epoch": 88021,
        "meta_bstar": 0.0011437,
        "meta_mean_motion_dot": 4.344e-05,
        "meta_mean_motion_ddot": 0,
        "tle_line1": "1 34388U 93036QD  25337.50270552  .00004344  00000+0  11437-2 0  9995",
        "tle_line2": "2 34388  74.0401 240.4268 0014324 289.0048 257.4606 14.49281712880213"
      },
      "geometry": {
        "type": "Point",
        "coordinates": [
          -116.37935071023914,
          12.968124554748242
        ]
      }
    }
  ]
}